[{"OBJECT_NAME":"VSP RF C1","OBJECT_ID":"2024-043AQ","EPOCH":"2026-03-09T21:56:05.358624","MEAN_MOTION":15.29409663,"ECCENTRICITY":0.00093965,"INCLINATION":97.5441,"RA_OF_ASC_NODE":205.1792,"ARG_OF_PERICENTER":219.6172,"MEAN_ANOMALY":140.4382,"EPHEMERIS_TYPE":0,"CLASSIFICATION_TYPE":"U","NORAD_CAT_ID":59136,"ELEMENT_SET_NO":999,"REV_AT_EPOCH":11190,"BSTAR":0.00026222052,"MEAN_MOTION_DOT":7.409e-5,"MEAN_MOTION_DDOT":0},{"OBJECT_NAME":"STARLINK-35293","OBJECT_ID":"2025-232H","EPOCH":"2026-03-09T12:26:44.788416","MEAN_MOTION":15.30199704,"ECCENTRICITY":0.00012706,"INCLINATION":53.1577,"RA_OF_ASC_NODE":104.4001,"ARG_OF_PERICENTER":77.7877,"MEAN_ANOMALY":282.3266,"EPHEMERIS_TYPE":0,"CLASSIFICATION_TYPE":"U","NORAD_CAT_ID":66012,"ELEMENT_SET_NO":999,"REV_AT_EPOCH":2341,"BSTAR":0.0011275386,"MEAN_MOTION_DOT":0.00033184,"MEAN_MOTION_DDOT":0}]
